#aV2021 11  9  0  0  0.00000000     288 DD+AD WGS84 FIT  NGA
## 2183 172800.00000000   300.00000000 59527 0.0000000000000
+   32     1  2  3  4  5  6  7  8  9 10 11 12 13 14 15 16 17
+         18 19 20 21 22 23 24 25 26 27 28 29 30 31 32  0  0
+          0  0  0  0  0  0  0  0  0  0  0  0  0  0  0  0  0
+          0  0  0  0  0  0  0  0  0  0  0  0  0  0  0  0  0
+          0  0  0  0  0  0  0  0  0  0  0  0  0  0  0  0  0
++         2  2  2  2  2  2  2  2  2  2  2  2  2  2  2  2  2
++         2  2  2  2  2  2  2  2  2  2  2  2  2  2  2  0  0
++         0  0  0  0  0  0  0  0  0  0  0  0  0  0  0  0  0
++         0  0  0  0  0  0  0  0  0  0  0  0  0  0  0  0  0
++         0  0  0  0  0  0  0  0  0  0  0  0  0  0  0  0  0
%c cc cc ccc ccc cccc cccc cccc cccc ccccc ccccc ccccc ccccc
%c cc cc ccc ccc cccc cccc cccc cccc ccccc ccccc ccccc ccccc
%f  0.0000000  0.000000000  0.00000000000  0.000000000000000
%f  0.0000000  0.000000000  0.00000000000  0.000000000000000
%i    0    0    0    0      0      0      0      0         0
%i    0    0    0    0      0      0      0      0         0
/*      NGA, ST. LOUIS,MO.                                  
/*   EPHEMERIS COMPUTED FROM 2 DAYS OF DATA                 
/*   EPOCHA v7 SMOOTHER                                     
/*   G2139 IERS2010 SATIGS SATAPC                           
*  2021 11  9 15 25  0.00000000
P  1 -13937.394591  22061.002120   3575.493841    515.553472                    
V  1    199.894207  -5418.413066  32107.563984     -0.105392                    
P  2  16587.971465  -4877.751146 -19532.042061   -641.278277                    
V  2  -8730.700368  24750.338179 -13074.661328     -0.016291                    
P  3 -16121.760885  12628.101014 -16964.440384     -9.393910                    
V  3 -21411.295985   -272.569859  20367.259864     -0.091529                    
P  4  -6115.211166  16534.925973 -19842.928303   -202.219747                    
V  4 -14246.025444 -20846.838608 -13051.483516      0.008139                    
P  5  25638.408482  -5676.450419   4333.425581    -60.493165                    
V  5   5935.207145   2146.897365 -30964.073553     -0.012728                    
P  6  10284.028157  11408.932186 -21594.786142    113.857431                    
V  6 -12736.051415  24392.447939   6855.694943      0.089999                    
P  7  -3239.845585  23849.410560  11032.575150    275.551290                    
V  7  -8799.657126  10847.864139 -27428.924278      0.055135                    
P  8 -14190.256483   5859.279132  21687.100984    -43.474632                    
V  8 -15509.299941 -22735.665999  -3686.880059     -0.015484                    
P  9   4705.512228  22816.872325 -12802.506443   -361.806976                    
V  9 -11213.652342 -11902.926412 -25509.056560      0.001835                    
P 10 -14625.394145 -11987.148493  18892.366121   -242.358400                    
V 10  23479.018129  -2632.396357  16329.031696     -0.084150                    
P 11  17099.989464  -1400.830127 -20279.822429     19.974167                    
V 11 -11863.646040  22859.406041 -11602.304737     -0.013441                    
P 12  18140.042292 -10911.845730 -16208.635050   -123.855819                    
V 12  20129.457189   1864.118683  21741.227762     -0.055369                    
P 13  16851.805768   2827.494294  20222.712025    212.065858                    
V 13  10524.983725  23742.664506 -11851.097564      0.056538                    
P 14  13959.402286  12866.293521  18597.231177    -35.138046                    
V 14 -23576.714458   2011.730467  16248.744377     -0.069938                    
P 15  13652.940524  -8086.780831  20922.969411   -107.728756                    
V 15  17743.855857  21141.696799  -3013.746146      0.028029                    
P 16 -26749.679818    359.061225   1598.364109   -421.255026                    
V 16  -2246.678647  -2152.056193 -31602.343203     -0.064074                    
P 17  12808.233255  23250.744282    837.424033    531.274213                    
V 17  -2170.218790    644.647288  32180.719633      0.053297                    
P 18   3161.909889 -23518.409905  11820.291293    298.181543                    
V 18   8922.145322 -12307.885790 -26954.361730     -0.057224                    
P 19  16555.561125  19069.883404  -8764.155469     77.019357                    
V 19   3281.187695  10342.126712  29433.040659      0.049965                    
P 20  25502.096076   -367.500063  -6925.560435    518.214820                    
V 20  -7914.938180   5294.758651 -29775.183408     -0.001886                    
P 21 -16499.486024  16302.259970  13084.062219    150.489458                    
V 21   3559.556946 -15546.028026  25747.395062      0.011559                    
P 22 -21996.655420  10931.483409  -9665.829427   -468.890917                    
V 22 -13013.883509  -1226.974252  27944.376563      0.090853                    
P 23  -1810.856423 -14985.566348  21833.765185     34.971665                    
V 23  27643.476046  -2495.369814    497.371815     -0.044589                    
P 24  14729.606540 -20147.800999   8183.491121    265.135195                    
V 24   -648.990959  11530.747541  29005.330981      0.043825                    
P 25   6745.808631 -15172.992972 -20938.671051    237.919169                    
V 25  26052.862247   -815.090039   9371.815077      0.059694                    
P 26 -23335.091665  -5907.818307 -11609.012400    153.631433                    
V 26  14190.119427  -4306.395987 -26181.851353      0.038358                    
P 27 -18471.842549  -5340.976361  18302.351528   -217.061451                    
V 27 -12009.484732 -20167.533970 -17462.412452     -0.047360                    
P 28  19768.714756  10602.172448  14595.015809    466.180421                    
V 28 -17718.155143   1322.637425  24140.062364     -0.074970                    
P 29      4.405383 -21404.285472 -15722.862763   -438.242305                    
V 29  11061.204376  16578.735737 -22685.738867     -0.052987                    
P 30   5327.990978  18604.648657  18156.781375   -489.897583                    
V 30 -12494.373081  19516.645834 -16629.172347     -0.032566                    
P 31 -12475.151088  -9151.793505 -21666.102920   -149.290501                    
V 31  13160.989139 -23933.898012   3010.359151     -0.019352                    
P 32 -16443.616215 -20773.209473  -2863.474473    -19.905566                    
V 32    187.151591  -4659.566913  31282.346265     -0.046401                    
EOF
